ONEWEB-0331             
1 49198U 21083N   25339.13110881  .00000080  00000+0  17042-3 0  9994
2 49198  87.9189  13.9889 0001491 105.6707 254.4590 13.18684852204432
ONEWEB-0333             
1 49199U 21083P   25339.11583810  .00000308  00000+0  80724-3 0  9999
2 49199  87.8968 358.8289 0001803  92.1362 267.9974 13.13471291205438
ONEWEB-0334             
1 49200U 21083Q   25338.97788561 -.00000057  00000+0 -17157-3 0  9998
2 49200  87.9192 313.1929 0002768  77.7494 282.3949 13.20770577211158
ONEWEB-0335             
1 49201U 21083R   25339.11075623  .00000102  00000+0  24470-3 0  9999
2 49201  87.8971 358.8187 0001613  98.7238 261.4074 13.13471658205444
ONEWEB-0336             
1 49202U 21083S   25339.31050475 -.00000168  00000+0 -49536-3 0  9994
2 49202  87.8976 358.7747 0001445 103.6761 256.4529 13.13470360205461
ONEWEB-0337             
1 49203U 21083T   25339.32052217 -.00000226  00000+0 -65472-3 0  9994
2 49203  87.8980 358.7845 0001532  91.6577 268.4728 13.13470584205466
ONEWEB-0338             
1 49204U 21083U   25338.95263902  .00000087  00000+0  18230-3 0  9991
2 49204  87.9186 313.2005 0002046  80.6694 279.4670 13.20772293211172
ONEWEB-0339             
1 49205U 21083V   25339.32912952 -.00000216  00000+0 -62738-3 0  9998
2 49205  87.8982 358.7647 0001739  87.6533 272.4795 13.13470761205440
ONEWEB-0340             
1 49206U 21083W   25339.11792260  .00000092  00000+0  20040-3 0  9994
2 49206  87.9190  13.9964 0001756  97.9974 262.1358 13.18686146204392
ONEWEB-0341             
1 49207U 21083X   25339.12451817  .00000073  00000+0  15203-3 0  9990
2 49207  87.9187  14.0066 0001357  84.1997 275.9290 13.18685894204413
ONEWEB-0342             
1 49208U 21083Y   25338.95894019  .00000090  00000+0  19026-3 0  9992
2 49208  87.9195 313.1696 0001912  82.0977 278.0374 13.20770033211145
ONEWEB-0343             
1 49209U 21083Z   25339.13275874  .00000093  00000+0  20217-3 0  9993
2 49209  87.9189  13.9971 0001675  77.2488 282.8831 13.18684754204468
ONEWEB-0344             
1 49210U 21083AA  25339.32404991 -.00000224  00000+0 -64775-3 0  9995
2 49210  87.8974 358.7983 0001363  86.2774 273.8511 13.13470672205447
ONEWEB-0345             
1 49211U 21083AB  25339.31558541 -.00000251  00000+0 -72177-3 0  9991
2 49211  87.8980 358.7589 0001440  84.4450 275.6844 13.13471229205453
ONEWEB-0346             
1 49212U 21083AC  25339.12946144  .00000088  00000+0  19038-3 0  9994
2 49212  87.9183  14.0132 0001735 117.4593 242.6716 13.18686817204400
ONEWEB-0348             
1 49213U 21083AD  25338.94946784  .00000122  00000+0  26709-3 0  9996
2 49213  87.9185 313.1778 0001250  91.4256 268.7020 13.20770391211174
ONEWEB-0350             
1 49214U 21083AE  25339.09636457 -.00000213  00000+0 -61687-3 0  9994
2 49214  87.8983 358.7999 0001407  90.3290 269.8001 13.13470530205459
