[{"OBJECT_NAME":"ONEWEB-0331","OBJECT_ID":"2021-083N","EPOCH":"2025-12-05T03:08:47.801184","MEAN_MOTION":13.18684852,"ECCENTRICITY":0.00014914,"INCLINATION":87.9189,"RA_OF_ASC_NODE":13.9889,"ARG_OF_PERICENTER":105.6707,"MEAN_ANOMALY":254.459,"EPHEMERIS_TYPE":0,"CLASSIFICATION_TYPE":"U","NORAD_CAT_ID":49198,"ELEMENT_SET_NO":999,"REV_AT_EPOCH":20443,"BSTAR":0.00017042137,"MEAN_MOTION_DOT":8.0e-7,"MEAN_MOTION_DDOT":0},{"OBJECT_NAME":"ONEWEB-0333","OBJECT_ID":"2021-083P","EPOCH":"2025-12-05T02:46:48.411840","MEAN_MOTION":13.13471291,"ECCENTRICITY":0.00018036,"INCLINATION":87.8968,"RA_OF_ASC_NODE":358.8289,"ARG_OF_PERICENTER":92.1362,"MEAN_ANOMALY":267.9974,"EPHEMERIS_TYPE":0,"CLASSIFICATION_TYPE":"U","NORAD_CAT_ID":49199,"ELEMENT_SET_NO":999,"REV_AT_EPOCH":20543,"BSTAR":0.00080724128,"MEAN_MOTION_DOT":3.08e-6,"MEAN_MOTION_DDOT":0},{"OBJECT_NAME":"ONEWEB-0334","OBJECT_ID":"2021-083Q","EPOCH":"2025-12-04T23:28:09.316704","MEAN_MOTION":13.20770577,"ECCENTRICITY":0.00027689,"INCLINATION":87.9192,"RA_OF_ASC_NODE":313.1929,"ARG_OF_PERICENTER":77.7494,"MEAN_ANOMALY":282.3949,"EPHEMERIS_TYPE":0,"CLASSIFICATION_TYPE":"U","NORAD_CAT_ID":49200,"ELEMENT_SET_NO":999,"REV_AT_EPOCH":21115,"BSTAR":-0.00017157326,"MEAN_MOTION_DOT":-5.7e-7,"MEAN_MOTION_DDOT":0},{"OBJECT_NAME":"ONEWEB-0335","OBJECT_ID":"2021-083R","EPOCH":"2025-12-05T02:39:29.338272","MEAN_MOTION":13.13471658,"ECCENTRICITY":0.00016136,"INCLINATION":87.8971,"RA_OF_ASC_NODE":358.8187,"ARG_OF_PERICENTER":98.7238,"MEAN_ANOMALY":261.4074,"EPHEMERIS_TYPE":0,"CLASSIFICATION_TYPE":"U","NORAD_CAT_ID":49201,"ELEMENT_SET_NO":999,"REV_AT_EPOCH":20544,"BSTAR":0.00024470349,"MEAN_MOTION_DOT":1.02e-6,"MEAN_MOTION_DDOT":0},{"OBJECT_NAME":"ONEWEB-0336","OBJECT_ID":"2021-083S","EPOCH":"2025-12-05T07:27:07.610400","MEAN_MOTION":13.1347036,"ECCENTRICITY":0.00014452,"INCLINATION":87.8976,"RA_OF_ASC_NODE":358.7747,"ARG_OF_PERICENTER":103.6761,"MEAN_ANOMALY":256.4529,"EPHEMERIS_TYPE":0,"CLASSIFICATION_TYPE":"U","NORAD_CAT_ID":49202,"ELEMENT_SET_NO":999,"REV_AT_EPOCH":20546,"BSTAR":-0.00049535505,"MEAN_MOTION_DOT":-1.68e-6,"MEAN_MOTION_DDOT":0},{"OBJECT_NAME":"ONEWEB-0337","OBJECT_ID":"2021-083T","EPOCH":"2025-12-05T07:41:33.115488","MEAN_MOTION":13.13470584,"ECCENTRICITY":0.00015329,"INCLINATION":87.898,"RA_OF_ASC_NODE":358.7845,"ARG_OF_PERICENTER":91.6577,"MEAN_ANOMALY":268.4728,"EPHEMERIS_TYPE":0,"CLASSIFICATION_TYPE":"U","NORAD_CAT_ID":49203,"ELEMENT_SET_NO":999,"REV_AT_EPOCH":20546,"BSTAR":-0.00065472297,"MEAN_MOTION_DOT":-2.26e-6,"MEAN_MOTION_DDOT":0},{"OBJECT_NAME":"ONEWEB-0338","OBJECT_ID":"2021-083U","EPOCH":"2025-12-04T22:51:48.011328","MEAN_MOTION":13.20772293,"ECCENTRICITY":0.0002046,"INCLINATION":87.9186,"RA_OF_ASC_NODE":313.2005,"ARG_OF_PERICENTER":80.6694,"MEAN_ANOMALY":279.467,"EPHEMERIS_TYPE":0,"CLASSIFICATION_TYPE":"U","NORAD_CAT_ID":49204,"ELEMENT_SET_NO":999,"REV_AT_EPOCH":21117,"BSTAR":0.0001823,"MEAN_MOTION_DOT":8.7e-7,"MEAN_MOTION_DDOT":0},{"OBJECT_NAME":"ONEWEB-0339","OBJECT_ID":"2021-083V","EPOCH":"2025-12-05T07:53:56.790528","MEAN_MOTION":13.13470761,"ECCENTRICITY":0.0001739,"INCLINATION":87.8982,"RA_OF_ASC_NODE":358.7647,"ARG_OF_PERICENTER":87.6533,"MEAN_ANOMALY":272.4795,"EPHEMERIS_TYPE":0,"CLASSIFICATION_TYPE":"U","NORAD_CAT_ID":49205,"ELEMENT_SET_NO":999,"REV_AT_EPOCH":20544,"BSTAR":-0.00062738246,"MEAN_MOTION_DOT":-2.16e-6,"MEAN_MOTION_DDOT":0},{"OBJECT_NAME":"ONEWEB-0340","OBJECT_ID":"2021-083W","EPOCH":"2025-12-05T02:49:48.512640","MEAN_MOTION":13.18686146,"ECCENTRICITY":0.0001756,"INCLINATION":87.919,"RA_OF_ASC_NODE":13.9964,"ARG_OF_PERICENTER":97.9974,"MEAN_ANOMALY":262.1358,"EPHEMERIS_TYPE":0,"CLASSIFICATION_TYPE":"U","NORAD_CAT_ID":49206,"ELEMENT_SET_NO":999,"REV_AT_EPOCH":20439,"BSTAR":0.00020039519,"MEAN_MOTION_DOT":9.2e-7,"MEAN_MOTION_DDOT":0},{"OBJECT_NAME":"ONEWEB-0341","OBJECT_ID":"2021-083X","EPOCH":"2025-12-05T02:59:18.369888","MEAN_MOTION":13.18685894,"ECCENTRICITY":0.00013576,"INCLINATION":87.9187,"RA_OF_ASC_NODE":14.0066,"ARG_OF_PERICENTER":84.1997,"MEAN_ANOMALY":275.929,"EPHEMERIS_TYPE":0,"CLASSIFICATION_TYPE":"U","NORAD_CAT_ID":49207,"ELEMENT_SET_NO":999,"REV_AT_EPOCH":20441,"BSTAR":0.00015202881,"MEAN_MOTION_DOT":7.3e-7,"MEAN_MOTION_DDOT":0},{"OBJECT_NAME":"ONEWEB-0342","OBJECT_ID":"2021-083Y","EPOCH":"2025-12-04T23:00:52.432416","MEAN_MOTION":13.20770033,"ECCENTRICITY":0.0001912,"INCLINATION":87.9195,"RA_OF_ASC_NODE":313.1696,"ARG_OF_PERICENTER":82.0977,"MEAN_ANOMALY":278.0374,"EPHEMERIS_TYPE":0,"CLASSIFICATION_TYPE":"U","NORAD_CAT_ID":49208,"ELEMENT_SET_NO":999,"REV_AT_EPOCH":21114,"BSTAR":0.00019026,"MEAN_MOTION_DOT":9.0e-7,"MEAN_MOTION_DDOT":0},{"OBJECT_NAME":"ONEWEB-0343","OBJECT_ID":"2021-083Z","EPOCH":"2025-12-05T03:11:10.355136","MEAN_MOTION":13.18684754,"ECCENTRICITY":0.00016755,"INCLINATION":87.9189,"RA_OF_ASC_NODE":13.9971,"ARG_OF_PERICENTER":77.2488,"MEAN_ANOMALY":282.8831,"EPHEMERIS_TYPE":0,"CLASSIFICATION_TYPE":"U","NORAD_CAT_ID":49209,"ELEMENT_SET_NO":999,"REV_AT_EPOCH":20446,"BSTAR":0.00020216577,"MEAN_MOTION_DOT":9.3e-7,"MEAN_MOTION_DDOT":0},{"OBJECT_NAME":"ONEWEB-0344","OBJECT_ID":"2021-083AA","EPOCH":"2025-12-05T07:46:37.912224","MEAN_MOTION":13.13470672,"ECCENTRICITY":0.00013634,"INCLINATION":87.8974,"RA_OF_ASC_NODE":358.7983,"ARG_OF_PERICENTER":86.2774,"MEAN_ANOMALY":273.8511,"EPHEMERIS_TYPE":0,"CLASSIFICATION_TYPE":"U","NORAD_CAT_ID":49210,"ELEMENT_SET_NO":999,"REV_AT_EPOCH":20544,"BSTAR":-0.0006477498,"MEAN_MOTION_DOT":-2.24e-6,"MEAN_MOTION_DDOT":0},{"OBJECT_NAME":"ONEWEB-0345","OBJECT_ID":"2021-083AB","EPOCH":"2025-12-05T07:34:26.579424","MEAN_MOTION":13.13471229,"ECCENTRICITY":0.00014403,"INCLINATION":87.898,"RA_OF_ASC_NODE":358.7589,"ARG_OF_PERICENTER":84.445,"MEAN_ANOMALY":275.6844,"EPHEMERIS_TYPE":0,"CLASSIFICATION_TYPE":"U","NORAD_CAT_ID":49211,"ELEMENT_SET_NO":999,"REV_AT_EPOCH":20545,"BSTAR":-0.00072176532,"MEAN_MOTION_DOT":-2.51e-6,"MEAN_MOTION_DDOT":0},{"OBJECT_NAME":"ONEWEB-0346","OBJECT_ID":"2021-083AC","EPOCH":"2025-12-05T03:06:25.468416","MEAN_MOTION":13.18686817,"ECCENTRICITY":0.00017356,"INCLINATION":87.9183,"RA_OF_ASC_NODE":14.0132,"ARG_OF_PERICENTER":117.4593,"MEAN_ANOMALY":242.6716,"EPHEMERIS_TYPE":0,"CLASSIFICATION_TYPE":"U","NORAD_CAT_ID":49212,"ELEMENT_SET_NO":999,"REV_AT_EPOCH":20440,"BSTAR":0.00019037771,"MEAN_MOTION_DOT":8.8e-7,"MEAN_MOTION_DDOT":0},{"OBJECT_NAME":"ONEWEB-0348","OBJECT_ID":"2021-083AD","EPOCH":"2025-12-04T22:47:14.021376","MEAN_MOTION":13.20770391,"ECCENTRICITY":0.000125,"INCLINATION":87.9185,"RA_OF_ASC_NODE":313.1778,"ARG_OF_PERICENTER":91.4256,"MEAN_ANOMALY":268.702,"EPHEMERIS_TYPE":0,"CLASSIFICATION_TYPE":"U","NORAD_CAT_ID":49213,"ELEMENT_SET_NO":999,"REV_AT_EPOCH":21117,"BSTAR":0.00026709,"MEAN_MOTION_DOT":1.22e-6,"MEAN_MOTION_DDOT":0},{"OBJECT_NAME":"ONEWEB-0350","OBJECT_ID":"2021-083AE","EPOCH":"2025-12-05T02:18:45.898848","MEAN_MOTION":13.1347053,"ECCENTRICITY":0.00014075,"INCLINATION":87.8983,"RA_OF_ASC_NODE":358.7999,"ARG_OF_PERICENTER":90.329,"MEAN_ANOMALY":269.8001,"EPHEMERIS_TYPE":0,"CLASSIFICATION_TYPE":"U","NORAD_CAT_ID":49214,"ELEMENT_SET_NO":999,"REV_AT_EPOCH":20545,"BSTAR":-0.00061686663,"MEAN_MOTION_DOT":-2.13e-6,"MEAN_MOTION_DDOT":0}]
